{
  "links" : {
    "next" : "https://api.nasa.gov/neo/rest/v1/feed?start_date=2000-05-23&end_date=2000-05-23&detailed=true&api_key=t0TVs3DtDT2H8Oy2Zy8m2eVrNsAVKAexjcZXUckd",
    "prev" : "https://api.nasa.gov/neo/rest/v1/feed?start_date=2000-05-21&end_date=2000-05-21&detailed=true&api_key=t0TVs3DtDT2H8Oy2Zy8m2eVrNsAVKAexjcZXUckd",
    "self" : "https://api.nasa.gov/neo/rest/v1/feed?start_date=2000-05-22&end_date=2000-05-22&detailed=true&api_key=t0TVs3DtDT2H8Oy2Zy8m2eVrNsAVKAexjcZXUckd"
  },
  "element_count" : 8,
  "near_earth_objects" : {
    "2000-05-22" : [ {
      "links" : {
        "self" : "https://api.nasa.gov/neo/rest/v1/neo/3667477?api_key=t0TVs3DtDT2H8Oy2Zy8m2eVrNsAVKAexjcZXUckd"
      },
      "neo_reference_id" : "3667477",
      "name" : "(2014 GC49)",
      "nasa_jpl_url" : "http://ssd.jpl.nasa.gov/sbdb.cgi?sstr=3667477",
      "absolute_magnitude_h" : 28.6,
      "estimated_diameter" : {
        "kilometers" : {
          "estimated_diameter_min" : 0.0050647146,
          "estimated_diameter_max" : 0.0113250461
        },
        "meters" : {
          "estimated_diameter_min" : 5.0647145883,
          "estimated_diameter_max" : 11.3250461062
        },
        "miles" : {
          "estimated_diameter_min" : 0.0031470668,
          "estimated_diameter_max" : 0.0070370552
        },
        "feet" : {
          "estimated_diameter_min" : 16.61651821,
          "estimated_diameter_max" : 37.155664267
        }
      },
      "is_potentially_hazardous_asteroid" : false,
      "close_approach_data" : [ {
        "close_approach_date" : "2000-05-22",
        "epoch_date_close_approach" : 958978800000,
        "relative_velocity" : {
          "kilometers_per_second" : "13.7736169805",
          "kilometers_per_hour" : "49585.0211299231",
          "miles_per_hour" : "30810.203823757"
        },
        "miss_distance" : {
          "astronomical" : "0.161184027",
          "lunar" : "62.7005882263",
          "kilometers" : "24112788",
          "miles" : "14982992"
        },
        "orbiting_body" : "Earth"
      } ],
      "orbital_data" : {
        "orbit_id" : "4",
        "orbit_determination_date" : "2017-04-06 08:41:36",
        "orbit_uncertainty" : "6",
        "minimum_orbit_intersection" : ".000661303",
        "jupiter_tisserand_invariant" : "7.653",
        "epoch_osculation" : "2458000.5",
        "eccentricity" : ".6441143704482246",
        "semi_major_axis" : ".7347761314364714",
        "inclination" : "6.429908613912879",
        "ascending_node_longitude" : "193.2966804284787",
        "orbital_period" : "230.0546347659167",
        "perihelion_distance" : ".2614962661158867",
        "perihelion_argument" : "207.5307104653123",
        "aphelion_distance" : "1.208055996757056",
        "perihelion_time" : "2458071.175225573533",
        "mean_anomaly" : "249.4041790013897",
        "mean_motion" : "1.564845674012629",
        "equinox" : "J2000"
      }
    }, {
      "links" : {
        "self" : "https://api.nasa.gov/neo/rest/v1/neo/2474611?api_key=t0TVs3DtDT2H8Oy2Zy8m2eVrNsAVKAexjcZXUckd"
      },
      "neo_reference_id" : "2474611",
      "name" : "474611 (2004 SB56)",
      "nasa_jpl_url" : "http://ssd.jpl.nasa.gov/sbdb.cgi?sstr=2474611",
      "absolute_magnitude_h" : 19.2,
      "estimated_diameter" : {
        "kilometers" : {
          "estimated_diameter_min" : 0.3841978911,
          "estimated_diameter_max" : 0.8590926012
        },
        "meters" : {
          "estimated_diameter_min" : 384.1978910643,
          "estimated_diameter_max" : 859.0926012318
        },
        "miles" : {
          "estimated_diameter_min" : 0.2387294278,
          "estimated_diameter_max" : 0.5338152287
        },
        "feet" : {
          "estimated_diameter_min" : 1260.4918089193,
          "estimated_diameter_max" : 2818.5453698252
        }
      },
      "is_potentially_hazardous_asteroid" : false,
      "close_approach_data" : [ {
        "close_approach_date" : "2000-05-22",
        "epoch_date_close_approach" : 958978800000,
        "relative_velocity" : {
          "kilometers_per_second" : "7.8255407767",
          "kilometers_per_hour" : "28171.9467960275",
          "miles_per_hour" : "17504.9521633427"
        },
        "miss_distance" : {
          "astronomical" : "0.3857059499",
          "lunar" : "150.0396118164",
          "kilometers" : "57700788",
          "miles" : "35853608"
        },
        "orbiting_body" : "Earth"
      } ],
      "orbital_data" : {
        "orbit_id" : "49",
        "orbit_determination_date" : "2017-04-06 09:19:06",
        "orbit_uncertainty" : "0",
        "minimum_orbit_intersection" : ".053397",
        "jupiter_tisserand_invariant" : "6.760",
        "epoch_osculation" : "2458000.5",
        "eccentricity" : ".2377045233913087",
        "semi_major_axis" : ".8658131607776327",
        "inclination" : "18.69307939922778",
        "ascending_node_longitude" : "302.0620857719389",
        "orbital_period" : "294.2623516488621",
        "perihelion_distance" : ".660005456049063",
        "perihelion_argument" : "233.5455455072648",
        "aphelion_distance" : "1.071620865506202",
        "perihelion_time" : "2458117.781160641716",
        "mean_anomaly" : "216.5184516658813",
        "mean_motion" : "1.223398093513442",
        "equinox" : "J2000"
      }
    } ]
  }
}